{"type": "FeatureCollection", "features": [ {"type": "Feature", "properties": {"norad_id": 30700, "name": "FENGYUN 1C DEB", "group": "fengyun-1c-debris", "lat": 61.04541275486845, "lon": -159.3522501285972, "alt_km": 771.3588547431527, "timestamp": "2025-12-02T06:27:53.291619+00:00", "meta": {"OBJECT_NAME": "FENGYUN 1C DEB", "OBJECT_ID": "1999-025ARJ", "EPOCH": "2025-12-01T07:59:03.585696", "MEAN_MOTION": 14.23778174, "ECCENTRICITY": 0.00865861, "INCLINATION": 98.543, "RA_OF_ASC_NODE": 3.9734, "ARG_OF_PERICENTER": 176.3473, "MEAN_ANOMALY": 183.8357, "EPHEMERIS_TYPE": 0, "CLASSIFICATION_TYPE": "U", "NORAD_CAT_ID": 30700, "ELEMENT_SET_NO": 999, "REV_AT_EPOCH": 97407, "BSTAR": 0.00021564367, "MEAN_MOTION_DOT": 4.7e-06, "MEAN_MOTION_DDOT": 0}, "tle": {"line1": "1 30700U 99025ARJ 25335.33268039  .00000470  00000+0  21564-3 0  9998", "line2": "2 30700  98.5430   3.9734 0086586 176.3473 183.8357 14.23778174974077"}}, "geometry": {"type": "Point", "coordinates": [-159.3522501285972, 61.04541275486845]}}, {"type": "Feature", "properties": {"norad_id": 30701, "name": "FENGYUN 1C DEB", "group": "fengyun-1c-debris", "lat": 35.13844586152346, "lon": -155.97331916265267, "alt_km": 818.5377472623677, "timestamp": "2025-12-02T06:27:53.291628+00:00", "meta": {"OBJECT_NAME": "FENGYUN 1C DEB", "OBJECT_ID": "1999-025ARK", "EPOCH": "2025-12-01T01:12:38.210400", "MEAN_MOTION": 14.13933094, "ECCENTRICITY": 0.00354426, "INCLINATION": 98.72, "RA_OF_ASC_NODE": 16.6366, "ARG_OF_PERICENTER": 135.19, "MEAN_ANOMALY": 287.9749, "EPHEMERIS_TYPE": 0, "CLASSIFICATION_TYPE": "U", "NORAD_CAT_ID": 30701, "ELEMENT_SET_NO": 999, "REV_AT_EPOCH": 96954, "BSTAR": 1.7382551e-05, "MEAN_MOTION_DOT": -1e-07, "MEAN_MOTION_DDOT": 0}, "tle": {"line1": "1 30701U 99025ARK 25335.05044225 -.00000010  00000+0  17383-4 0  9993", "line2": "2 30701  98.7200  16.6366 0035442 135.1900 287.9749 14.13933094969540"}}, "geometry": {"type": "Point", "coordinates": [-155.97331916265267, 35.13844586152346]}}, {"type": "Feature", "properties": {"norad_id": 30702, "name": "FENGYUN 1C DEB", "group": "fengyun-1c-debris", "lat": 60.672626867520506, "lon": -167.56789425946005, "alt_km": 916.8643351866722, "timestamp": "2025-12-02T06:27:53.291638+00:00", "meta": {"OBJECT_NAME": "FENGYUN 1C DEB", "OBJECT_ID": "1999-025ARL", "EPOCH": "2025-11-30T21:57:24.157152", "MEAN_MOTION": 14.03549713, "ECCENTRICITY": 0.00684344, "INCLINATION": 98.771, "RA_OF_ASC_NODE": 355.1753, "ARG_OF_PERICENTER": 335.4401, "MEAN_ANOMALY": 141.9443, "EPHEMERIS_TYPE": 0, "CLASSIFICATION_TYPE": "U", "NORAD_CAT_ID": 30702, "ELEMENT_SET_NO": 999, "REV_AT_EPOCH": 95996, "BSTAR": 0.00066588754, "MEAN_MOTION_DOT": 1.023e-05, "MEAN_MOTION_DDOT": 0}, "tle": {"line1": "1 30702U 99025ARL 25334.91486293  .00001023  00000+0  66589-3 0  9998", "line2": "2 30702  98.7710 355.1753 0068434 335.4401 141.9443 14.03549713959961"}}, "geometry": {"type": "Point", "coordinates": [-167.56789425946005, 60.672626867520506]}}, {"type": "Feature", "properties": {"norad_id": 30703, "name": "FENGYUN 1C DEB", "group": "fengyun-1c-debris", "lat": -11.728691028835394, "lon": -37.11741818567777, "alt_km": 755.633861898732, "timestamp": "2025-12-02T06:27:53.291648+00:00", "meta": {"OBJECT_NAME": "FENGYUN 1C DEB", "OBJECT_ID": "1999-025ARM", "EPOCH": "2025-12-01T17:49:39.353376", "MEAN_MOTION": 14.19223802, "ECCENTRICITY": 0.0118416, "INCLINATION": 99.141, "RA_OF_ASC_NODE": 320.4239, "ARG_OF_PERICENTER": 323.309, "MEAN_ANOMALY": 215.5672, "EPHEMERIS_TYPE": 0, "CLASSIFICATION_TYPE": "U", "NORAD_CAT_ID": 30703, "ELEMENT_SET_NO": 999, "REV_AT_EPOCH": 96384, "BSTAR": 0.0013838, "MEAN_MOTION_DOT": 3.063e-05, "MEAN_MOTION_DDOT": 0}, "tle": {"line1": "1 30703U 99025ARM 25335.74281659  .00003063  00000+0  13838-2 0  9994", "line2": "2 30703  99.1410 320.4239 0118416 323.3090 215.5672 14.19223802963843"}}, "geometry": {"type": "Point", "coordinates": [-37.11741818567777, -11.728691028835394]}}, {"type": "Feature", "properties": {"norad_id": 30704, "name": "FENGYUN 1C DEB", "group": "fengyun-1c-debris", "lat": -40.084741425161134, "lon": 147.74025412186975, "alt_km": 894.6924604219812, "timestamp": "2025-12-02T06:27:53.291658+00:00", "meta": {"OBJECT_NAME": "FENGYUN 1C DEB", "OBJECT_ID": "1999-025ARN", "EPOCH": "2025-12-01T12:52:10.755840", "MEAN_MOTION": 14.02026776, "ECCENTRICITY": 0.00816308, "INCLINATION": 98.8706, "RA_OF_ASC_NODE": 334.5795, "ARG_OF_PERICENTER": 130.7372, "MEAN_ANOMALY": 350.6138, "EPHEMERIS_TYPE": 0, "CLASSIFICATION_TYPE": "U", "NORAD_CAT_ID": 30704, "ELEMENT_SET_NO": 999, "REV_AT_EPOCH": 95954, "BSTAR": 0.00042596544, "MEAN_MOTION_DOT": 6.27e-06, "MEAN_MOTION_DDOT": 0}, "tle": {"line1": "1 30704U 99025ARN 25335.53623560  .00000627  00000+0  42597-3 0  9991", "line2": "2 30704  98.8706 334.5795 0081630 130.7372 350.6138 14.02026776959544"}}, "geometry": {"type": "Point", "coordinates": [147.74025412186975, -40.084741425161134]}}, {"type": "Feature", "properties": {"norad_id": 30705, "name": "FENGYUN 1C DEB", "group": "fengyun-1c-debris", "lat": -25.201911100955375, "lon": 83.27001677233683, "alt_km": 834.826218866132, "timestamp": "2025-12-02T06:27:53.291668+00:00", "meta": {"OBJECT_NAME": "FENGYUN 1C DEB", "OBJECT_ID": "1999-025ARP", "EPOCH": "2025-12-01T13:16:49.578240", "MEAN_MOTION": 13.81228938, "ECCENTRICITY": 0.01984251, "INCLINATION": 102.1809, "RA_OF_ASC_NODE": 76.5148, "ARG_OF_PERICENTER": 308.745, "MEAN_ANOMALY": 65.8744, "EPHEMERIS_TYPE": 0, "CLASSIFICATION_TYPE": "U", "NORAD_CAT_ID": 30705, "ELEMENT_SET_NO": 999, "REV_AT_EPOCH": 93855, "BSTAR": 0.0022414452, "MEAN_MOTION_DOT": 2.692e-05, "MEAN_MOTION_DDOT": 0}, "tle": {"line1": "1 30705U 99025ARP 25335.55335160  .00002692  00000+0  22414-2 0  9999", "line2": "2 30705 102.1809  76.5148 0198425 308.7450  65.8744 13.81228938938554"}}, "geometry": {"type": "Point", "coordinates": [83.27001677233683, -25.201911100955375]}}, {"type": "Feature", "properties": {"norad_id": 30706, "name": "FENGYUN 1C DEB", "group": "fengyun-1c-debris", "lat": 15.823690117956843, "lon": -132.08402631395313, "alt_km": 819.4167565782454, "timestamp": "2025-12-02T06:27:53.291678+00:00", "meta": {"OBJECT_NAME": "FENGYUN 1C DEB", "OBJECT_ID": "1999-025ARQ", "EPOCH": "2025-12-01T15:14:14.910720", "MEAN_MOTION": 14.26350901, "ECCENTRICITY": 0.00259226, "INCLINATION": 99.0657, "RA_OF_ASC_NODE": 229.8531, "ARG_OF_PERICENTER": 160.8308, "MEAN_ANOMALY": 199.3852, "EPHEMERIS_TYPE": 0, "CLASSIFICATION_TYPE": "U", "NORAD_CAT_ID": 30706, "ELEMENT_SET_NO": 999, "REV_AT_EPOCH": 97469, "BSTAR": 0.00087630316, "MEAN_MOTION_DOT": 2.066e-05, "MEAN_MOTION_DDOT": 0}, "tle": {"line1": "1 30706U 99025ARQ 25335.63489480  .00002066  00000+0  87630-3 0  9991", "line2": "2 30706  99.0657 229.8531 0025922 160.8308 199.3852 14.26350901974693"}}, "geometry": {"type": "Point", "coordinates": [-132.08402631395313, 15.823690117956843]}}, {"type": "Feature", "properties": {"norad_id": 30707, "name": "FENGYUN 1C DEB", "group": "fengyun-1c-debris", "lat": -57.20558715546932, "lon": -165.05863838139857, "alt_km": 825.6662741320406, "timestamp": "2025-12-02T06:27:53.291688+00:00", "meta": {"OBJECT_NAME": "FENGYUN 1C DEB", "OBJECT_ID": "1999-025ARR", "EPOCH": "2025-12-01T14:55:11.601120", "MEAN_MOTION": 14.2655977, "ECCENTRICITY": 0.00285767, "INCLINATION": 99.4147, "RA_OF_ASC_NODE": 29.1678, "ARG_OF_PERICENTER": 101.4897, "MEAN_ANOMALY": 52.1463, "EPHEMERIS_TYPE": 0, "CLASSIFICATION_TYPE": "U", "NORAD_CAT_ID": 30707, "ELEMENT_SET_NO": 999, "REV_AT_EPOCH": 96644, "BSTAR": 0.001557468, "MEAN_MOTION_DOT": 3.725e-05, "MEAN_MOTION_DDOT": 0}, "tle": {"line1": "1 30707U 99025ARR 25335.62166205  .00003725  00000+0  15575-2 0  9999", "line2": "2 30707  99.4147  29.1678 0028576 101.4897  52.1463 14.26559770966440"}}, "geometry": {"type": "Point", "coordinates": [-165.05863838139857, -57.20558715546932]}}, {"type": "Feature", "properties": {"norad_id": 30708, "name": "FENGYUN 1C DEB", "group": "fengyun-1c-debris", "lat": 52.90179564834764, "lon": -178.1041585351555, "alt_km": 847.8805544819425, "timestamp": "2025-12-02T06:27:53.291702+00:00", "meta": {"OBJECT_NAME": "FENGYUN 1C DEB", "OBJECT_ID": "1999-025ARS", "EPOCH": "2025-11-30T23:33:44.749152", "MEAN_MOTION": 14.12168105, "ECCENTRICITY": 0.0007509, "INCLINATION": 98.691, "RA_OF_ASC_NODE": 348.9786, "ARG_OF_PERICENTER": 229.5874, "MEAN_ANOMALY": 194.4011, "EPHEMERIS_TYPE": 0, "CLASSIFICATION_TYPE": "U", "NORAD_CAT_ID": 30708, "ELEMENT_SET_NO": 999, "REV_AT_EPOCH": 96670, "BSTAR": 0.00019143481, "MEAN_MOTION_DOT": 3.09e-06, "MEAN_MOTION_DDOT": 0}, "tle": {"line1": "1 30708U 99025ARS 25334.98176793  .00000309  00000+0  19143-3 0  9992", "line2": "2 30708  98.6910 348.9786 0007509 229.5874 194.4011 14.12168105966703"}}, "geometry": {"type": "Point", "coordinates": [-178.1041585351555, 52.90179564834764]}}, {"type": "Feature", "properties": {"norad_id": 30709, "name": "FENGYUN 1C DEB", "group": "fengyun-1c-debris", "lat": -41.72533202714092, "lon": -37.81633452286827, "alt_km": 783.5516144138228, "timestamp": "2025-12-02T06:27:53.291713+00:00", "meta": {"OBJECT_NAME": "FENGYUN 1C DEB", "OBJECT_ID": "1999-025ART", "EPOCH": "2025-12-01T15:24:46.880928", "MEAN_MOTION": 14.17275316, "ECCENTRICITY": 0.0083712, "INCLINATION": 99.1429, "RA_OF_ASC_NODE": 313.2819, "ARG_OF_PERICENTER": 301.6442, "MEAN_ANOMALY": 57.6585, "EPHEMERIS_TYPE": 0, "CLASSIFICATION_TYPE": "U", "NORAD_CAT_ID": 30709, "ELEMENT_SET_NO": 999, "REV_AT_EPOCH": 95839, "BSTAR": 0.0029659657, "MEAN_MOTION_DOT": 6.158e-05, "MEAN_MOTION_DDOT": 0}, "tle": {"line1": "1 30709U 99025ART 25335.64220927  .00006158  00000+0  29660-2 0  9998", "line2": "2 30709  99.1429 313.2819 0083712 301.6442  57.6585 14.17275316958390"}}, "geometry": {"type": "Point", "coordinates": [-37.81633452286827, -41.72533202714092]}}]}